STARLINK-2022           
1 47643U 21012Z   23281.40969221  .00019016  00000+0  12916-2 0  9996
2 47643  53.0544  56.8154 0003484  76.6907 283.4471 15.06411692146612
